[{"OBJECT_NAME":"STARLINK-34848","OBJECT_ID":"2025-191Z","EPOCH":"2026-03-09T15:13:22.082304","MEAN_MOTION":15.05648129,"ECCENTRICITY":0.0003019,"INCLINATION":97.6015,"RA_OF_ASC_NODE":301.5112,"ARG_OF_PERICENTER":78.1384,"MEAN_ANOMALY":282.0182,"EPHEMERIS_TYPE":0,"CLASSIFICATION_TYPE":"U","NORAD_CAT_ID":65402,"ELEMENT_SET_NO":999,"REV_AT_EPOCH":3026,"BSTAR":0.00031739,"MEAN_MOTION_DOT":4.522e-5,"MEAN_MOTION_DDOT":0},{"OBJECT_NAME":"COSMOS 2251 DEB","OBJECT_ID":"1993-036HX","EPOCH":"2026-03-09T21:31:03.673056","MEAN_MOTION":15.04193551,"ECCENTRICITY":0.00046843,"INCLINATION":74.0171,"RA_OF_ASC_NODE":332.1487,"ARG_OF_PERICENTER":332.3762,"MEAN_ANOMALY":27.7177,"EPHEMERIS_TYPE":0,"CLASSIFICATION_TYPE":"U","NORAD_CAT_ID":34036,"ELEMENT_SET_NO":999,"REV_AT_EPOCH":89876,"BSTAR":0.0040391987,"MEAN_MOTION_DOT":0.00056541,"MEAN_MOTION_DDOT":0}]
